ICEYE-X6                
1 46497U 20068M   26158.54758257  .00002923  00000+0  21367-3 0  9998
2 46497  98.0963 151.7593 0008539 117.4270 242.7824 15.04465264311781
NETSAT-4                
1 46504U 20068U   26158.27200028  .00018669  00000+0  41758-3 0  9995
2 46504  97.8612 165.7184 0005161  17.7874 342.3552 15.43533344314246
NETSAT-3                
1 46505U 20068V   26158.27061383  .00017897  00000+0  41675-3 0  9995
2 46505  97.8661 163.9460 0005548  35.2624 324.8988 15.42336147314154
NETSAT-1                
1 46506U 20068W   26157.57162386  .00016988  00000+0  51189-3 0  9994
2 46506  97.8751 157.6478 0006191  61.7667 298.4199 15.34388994313674
NETSAT-2                
1 46507U 20068X   26158.26069587  .00022906  00000+0  47758-3 0  9995
2 46507  97.8622 165.5652 0004765  53.4495 306.7190 15.45571255314206
TIANQI-6                
1 46810U 20076D   26158.26794413  .00004230  00000+0  27740-3 0  9993
2 46810  34.9983 109.3382 0009223  81.4287 278.7467 15.07116315307088
KSM1-C                  
1 46906U 20081B   26158.34958225  .00011252  00000+0  42313-3 0  9992
2 46906  36.8940 119.6687 0001343 191.1007 168.9713 15.26576476307661
KSM1-D                  
1 46907U 20081C   26158.33829846  .00009356  00000+0  37429-3 0  9992
2 46907  36.8954 128.5580 0003877 200.0094 160.0503 15.24581247307590
KSM1-A                  
1 46912U 20081H   26158.34777652  .00010342  00000+0  39834-3 0  9995
2 46912  36.8952 122.0011 0004507 245.4862 114.5417 15.25803842307675
R2                      
1 46913U 20081J   26152.08134849  .00008820  00000+0  34667-3 0  9993
2 46913  36.8961 160.5241 0006826 158.1099 201.9942 15.25182244309522
KSM1-B                  
1 46914U 20081K   26158.34039454  .00009679  00000+0  38933-3 0  9998
2 46914  36.9009 129.1259 0006174 212.4194 147.6176 15.24375597310681
GONETS-M 20             
1 47227U 20091A   26158.50741726  .00000006  00000+0 -29897-4 0  9993
2 47227  82.5044 308.4541 0020737 199.0581 160.9724 12.42893141249878
GONETS-M 21             
1 47228U 20091B   26158.48123285  .00000020  00000+0  73508-4 0  9998
2 47228  82.4968 307.1833 0014315 212.5024 147.5175 12.42886232249864
GONETS-M 22             
1 47229U 20091C   26158.45437093  .00000097  00000+0  62542-3 0  9990
2 47229  82.5026 308.0941 0021675 194.5303 165.5156 12.42892615249813
CUBEL                   
1 47448U 21006AM  26158.42193101  .00010849  00000+0  26604-3 0  9991
2 47448  97.2339 209.1002 0006220 193.2589 166.8496 15.40868849298252
ARKTIKA-M 1             
1 47719U 21016A   26153.03917935 -.00000200  00000+0  00000+0 0  9993
2 47719  63.2379  59.8266 7283239 269.8643  14.6915  2.00628509 38489
STARLINK-2342           
1 47883U 21021Z   26158.50004630  .00008748  00000+0  57977-4 0  9991
2 47883  53.1550 196.5206 0001804  64.9720 330.5396 15.76495428  5871
GRUS-1B                 
1 47934U 21022C   26158.56421834  .00002119  00000+0  17928-3 0  9991
2 47934  97.5403  42.0771 0016438   2.4623 357.6678 14.98973248284457
UNISAT-7                
1 47945U 21022P   26158.22008279  .00014916  00000+0  37248-3 0  9995
2 47945  97.3896  63.0418 0011165 107.4338 252.8129 15.40198678288326
GLOBAL-9                
1 47971U 21023G   26158.11176179  .00024138  00000+0  48586-3 0  9992
2 47971  44.9822 307.1421 0005324 267.1499  92.8782 15.46210962293386
AII-BRAVO               
1 48270U 21034C   26158.43729382  .00005689  00000+0  42253-3 0  9997
2 48270  97.5614 213.5690 0004884 302.6285  57.4469 15.03400943278158
TYVAK-182A              
1 48271U 21034D   26158.16534895  .00005616  00000+0  38845-3 0  9993
2 48271  97.5730 217.2571 0006073  21.1219 339.0258 15.06079326278323
CSS (TIANHE)            
1 48274U 21035A   26158.31385418  .00011550  00000+0  14046-3 0  9990
2 48274  41.4697  22.0692 0008749   0.1794 359.9047 15.60382427291623
TYVAK-0130              
1 48606U 21041BF  26158.49263887  .00008882  00000+0  33846-3 0  9993
2 48606  52.9966  71.1035 0011031 134.2788 225.9116 15.27434999278904
HAIYANG-2D              
1 48621U 21043A   26158.53269065 -.00000066  00000+0  13459-4 0  9997
2 48621  65.9998 328.7361 0011359 270.3100  89.6667 13.83375249255213
2021-050D               
1 48843U 21050D   26158.54785690  .00006521  00000+0  27824-3 0  9990
2 48843  97.3334 234.8039 0004226 309.6730  50.4134 15.23237651277490
TYVAK-0173              
1 48892U 21059P   26158.47413435  .00002156  00000+0  27646-3 0  9992
2 48892  96.0082 237.2452 0010866  68.3716 291.8658 14.81860249266809
MANDRAKE 2 ABLE         
1 48907U 21059AE  26158.52010961  .00022242  00000+0  33763-3 0  9997
2 48907  97.7041 347.5702 0005293  40.9629 319.2021 15.54600212275621
MANDRAKE 2 BAKER        
1 48908U 21059AF  26158.28720569  .00026776  00000+0  34433-3 0  9994
2 48908  97.7014 350.1231 0003767  42.8241 317.3307 15.59056964275758
