OBJECT_NAME,OBJECT_ID,EPOCH,MEAN_MOTION,ECCENTRICITY,INCLINATION,RA_OF_ASC_NODE,ARG_OF_PERICENTER,MEAN_ANOMALY,EPHEMERIS_TYPE,CLASSIFICATION_TYPE,NORAD_CAT_ID,ELEMENT_SET_NO,REV_AT_EPOCH,BSTAR,MEAN_MOTION_DOT,MEAN_MOTION_DDOT
ICEYE-X6,2020-068M,2026-06-07T13:08:31.134048,15.04465264,.0008539,98.0963,151.7593,117.4270,242.7824,0,U,46497,999,31178,.21367E-3,.2923E-4,0
NETSAT-4,2020-068U,2026-06-07T06:31:40.824192,15.43533344,.0005161,97.8612,165.7184,17.7874,342.3552,0,U,46504,999,31424,.41758E-3,.18669E-3,0
NETSAT-3,2020-068V,2026-06-07T06:29:41.034912,15.42336147,.0005548,97.8661,163.9460,35.2624,324.8988,0,U,46505,999,31415,.41675E-3,.17897E-3,0
NETSAT-1,2020-068W,2026-06-06T13:43:08.301504,15.34388994,.00061912,97.8751,157.6478,61.7667,298.4199,0,U,46506,999,31367,.51189457E-3,.16988E-3,0
NETSAT-2,2020-068X,2026-06-07T06:15:24.123168,15.45571255,.0004765,97.8622,165.5652,53.4495,306.7190,0,U,46507,999,31420,.47758E-3,.22906E-3,0
TIANQI-6,2020-076D,2026-06-07T06:25:50.372832,15.07116315,.0009223,34.9983,109.3382,81.4287,278.7467,0,U,46810,999,30708,.2774E-3,.423E-4,0
KSM1-C,2020-081B,2026-06-07T08:23:23.906400,15.26576476,.0001343,36.8940,119.6687,191.1007,168.9713,0,U,46906,999,30766,.42313E-3,.11252E-3,0
KSM1-D,2020-081C,2026-06-07T08:07:08.986944,15.24581247,.0003877,36.8954,128.5580,200.0094,160.0503,0,U,46907,999,30759,.37429E-3,.9356E-4,0
KSM1-A,2020-081H,2026-06-07T08:20:47.891328,15.25803842,.0004507,36.8952,122.0011,245.4862,114.5417,0,U,46912,999,30767,.39834E-3,.10342E-3,0
R2,2020-081J,2026-06-01T01:57:08.509536,15.25182244,.00068263,36.8961,160.5241,158.1099,201.9942,0,U,46913,999,30952,.346666E-3,.882E-4,0
KSM1-B,2020-081K,2026-06-07T08:10:10.088256,15.24375597,.0006174,36.9009,129.1259,212.4194,147.6176,0,U,46914,999,31068,.38933E-3,.9679E-4,0
GONETS-M 20,2020-091A,2026-06-07T12:10:40.851264,12.42893141,.0020737,82.5044,308.4541,199.0581,160.9724,0,U,47227,999,24987,-.29897E-4,.6E-7,0
GONETS-M 21,2020-091B,2026-06-07T11:32:58.518240,12.42886232,.0014315,82.4968,307.1833,212.5024,147.5175,0,U,47228,999,24986,.73508E-4,.2E-6,0
GONETS-M 22,2020-091C,2026-06-07T10:54:17.648352,12.42892615,.0021675,82.5026,308.0941,194.5303,165.5156,0,U,47229,999,24981,.62542E-3,.97E-6,0
CUBEL,2021-006AM,2026-06-07T10:07:34.839264,15.40868849,.000622,97.2339,209.1002,193.2589,166.8496,0,U,47448,999,29825,.26604E-3,.10849E-3,0
ARKTIKA-M 1,2021-016A,2026-06-02T00:56:25.095840,2.00628509,.72832396,63.2379,59.8266,269.8643,14.6915,0,U,47719,999,3848,0,-.2E-5,0
STARLINK-2342,2021-021Z,2026-06-07T12:00:04.000320,15.76495428,.0001804,53.1550,196.5206,64.9720,330.5396,0,U,47883,999,587,.57977E-4,.8748E-4,0
GRUS-1B,2021-022C,2026-06-07T13:32:28.464576,14.98973248,.0016438,97.5403,42.0771,2.4623,357.6678,0,U,47934,999,28445,.17928E-3,.2119E-4,0
UNISAT-7,2021-022P,2026-06-07T05:16:55.153056,15.40198678,.0011165,97.3896,63.0418,107.4338,252.8129,0,U,47945,999,28832,.37248E-3,.14916E-3,0
GLOBAL-9,2021-023G,2026-06-07T02:40:56.218656,15.46210962,.0005324,44.9822,307.1421,267.1499,92.8782,0,U,47971,999,29338,.48586E-3,.24138E-3,0
AII-BRAVO,2021-034C,2026-06-07T10:29:42.186048,15.03400943,.0004884,97.5614,213.5690,302.6285,57.4469,0,U,48270,999,27815,.42253E-3,.5689E-4,0
TYVAK-182A,2021-034D,2026-06-07T03:58:06.149280,15.06079326,.0006073,97.5730,217.2571,21.1219,339.0258,0,U,48271,999,27832,.38845E-3,.5616E-4,0
CSS (TIANHE),2021-035A,2026-06-07T07:31:57.001152,15.60382427,.0008749,41.4697,22.0692,0.1794,359.9047,0,U,48274,999,29162,.14046E-3,.1155E-3,0
TYVAK-0130,2021-041BF,2026-06-07T11:49:23.998368,15.27434999,.0011031,52.9966,71.1035,134.2788,225.9116,0,U,48606,999,27890,.33846E-3,.8882E-4,0
HAIYANG-2D,2021-043A,2026-06-07T12:47:04.472160,13.83375249,.0011359,65.9998,328.7361,270.3100,89.6667,0,U,48621,999,25521,.13459E-4,-.66E-6,0
2021-050D,2021-050D,2026-06-07T13:08:54.836160,15.23237651,.0004226,97.3334,234.8039,309.6730,50.4134,0,U,48843,999,27749,.27824E-3,.6521E-4,0
TYVAK-0173,2021-059P,2026-06-07T11:22:45.207840,14.81860249,.0010866,96.0082,237.2452,68.3716,291.8658,0,U,48892,999,26680,.27646E-3,.2156E-4,0
MANDRAKE 2 ABLE,2021-059AE,2026-06-07T12:28:57.470304,15.54600212,.0005293,97.7041,347.5702,40.9629,319.2021,0,U,48907,999,27562,.33763E-3,.22242E-3,0
MANDRAKE 2 BAKER,2021-059AF,2026-06-07T06:53:34.571616,15.59056964,.0003767,97.7014,350.1231,42.8241,317.3307,0,U,48908,999,27575,.34433E-3,.26776E-3,0
